MALLIGYONG-1            
1 58400U 23179A   24130.59354782  .00008393  00000+0  36619-3 0  9992
2 58400  97.4085  18.0291 0010492  47.5872 312.6251 15.22351591 25856
